{"type":"FeatureCollection","features":[{"id":"0","type":"Feature","properties":{"start_year":1855,"end_year":2019,"dural_peri":"1855CE-NOW","Shape_Leng":5317948.51233,"SymbolID":null,"Shape_Le_1":5328088.97394},"geometry":{"type":"MultiLineString","coordinates":[[[97.54590972900978,34.875986871641864],[97.6593938988526,34.90887864234372],[97.71365214201343,34.96189476639848],[97.76285287012466,35.08809237991989],[97.93441312308579,35.08246159739327],[98.02799960938538,35.03378250672123],[98.1008619620803,34.94019610072706],[98.19744882142882,34.87386436975293],[98.31775120427811,34.83482415082631],[98.38234905635915,34.79818499446251],[98.39577886985674,34.74671666056533],[98.40001891799778,34.67364667964007],[98.38358873145123,34.63067550134666],[98.34771900215634,34.59339114962823],[98.37604288306463,34.53138357665388],[98.46854240787042,34.44456795071529],[98.56342246817913,34.389633135537146],[98.6609345922703,34.36658282550047],[98.7131806091947,34.38001787204627],[98.72010662003525,34.42996517036472],[98.7519339305516,34.460997657162316],[98.80857270921534,34.47314378338488],[98.8916668729964,34.46195311772024],[99.00122540504762,34.42751260134417],[99.05754977336191,34.300592318682604],[99.06064896109213,34.081174550699494],[99.12318068801969,33.91524373242495],[99.24513597099175,33.802796115217106],[99.32378347411641,33.74812274354516],[99.35913218054652,33.75117019730144],[99.38145531535689,33.77134937530883],[99.39065406386626,33.80858099755143],[99.43882172940076,33.81188753526522],[99.52584153097341,33.781295319389365],[99.61989514122072,33.77450054262256],[99.72097357698985,33.7914790082703],[99.86835118250251,33.74352148072325],[100.0621447387456,33.630661113571186],[100.19143925758893,33.60352834213356],[100.25623473903246,33.66221175401117],[100.2779380362968,33.708742594241755],[100.3297708281905,33.757369340031346],[100.43436167672053,33.798683012627514],[100.58738070221746,33.88325666617291],[100.68949220056332,33.92620157486694],[100.74044464347858,33.92751343976069],[100.82467966767047,33.87777516068653],[100.94198167747079,33.77695717796776],[101.0091666775701,33.764165475350495],[101.02610890382859,33.8393574573089],[101.1233694996402,33.826873579969046],[101.30093049869927,33.72672776517574],[101.48071033651011,33.67753046920858],[101.66266409730852,33.67936942872296],[101.80890982556319,33.61107730187788],[101.91928582452294,33.47268215447153],[102.00507493415635,33.38762913225236],[102.06615139032364,33.355790616628646],[102.19296655898279,33.3711711849607],[102.38541264229971,33.4336933103578],[102.48163119238177,33.48374154008732],[102.48163119238177,33.521284958795434],[102.45016320797906,33.557382283213535],[102.3872182560208,33.59200536522679],[102.3525432860538,33.63826004936614],[102.32980692621271,33.72509901828263],[102.31600880344864,33.74507518148879],[102.2850528587579,33.80026557277311],[102.20599213060252,33.89726087256503],[102.10315299687653,33.95917095792411],[101.97644562605147,33.9859901450396],[101.83763794834933,34.047329548371714],[101.686846744757,34.143188600142466],[101.5170382065999,34.21852891010787],[101.32841894639333,34.27336056927432],[101.21049709904696,34.35046089204943],[101.16326368140795,34.44993870178011],[101.08698773063337,34.5127027121771],[100.9816692467232,34.538798510799204],[100.91201387959256,34.593420729415534],[100.87821925860398,34.67656480803077],[100.8146544690997,34.70754234037166],[100.72142730891376,34.6863083956293],[100.62975423416938,34.70816265892101],[100.53973405954775,34.77301932952532],[100.45508581032517,34.81255349767337],[100.37591728433571,34.82676463956062],[100.30739379446308,34.935541957276804],[100.2204817907245,35.24063680412805],[100.2586152745354,35.281720161159726],[100.23629213972502,35.3382023225886],[100.16611574972961,35.4237776018202],[100.17231412519004,35.54284126510871],[100.25489624925913,35.69538963353381],[100.33385816273324,35.77352979707049],[100.4092986802936,35.777246762132485],[100.54588751924398,35.86936460906722],[100.74354383120878,36.04984400871745],[100.89785643071484,36.14167365525885],[101.0087983683036,36.14485103781925],[101.07117738163286,36.135057322458174],[101.08492160547989,36.11226588062185],[101.17571433124586,36.0889088570374],[101.34340284533243,36.06487683207442],[101.49481388647078,36.08575824856049],[101.62969592638133,36.151488305311965],[101.76250285798557,36.151589854768844],[101.89303705192097,36.08601233457037],[101.99349565014406,35.99746815740621],[102.06377983797357,35.88589472723173],[102.18459426053481,35.84453019689175],[102.35584908629934,35.87336825672157],[102.61030587367905,35.860395704242244],[102.9477490270057,35.80557015715002],[103.17719671687551,35.811558529654],[103.29863996013563,35.87832522013003],[103.316776945722,35.93121656268135],[103.23171547146873,35.97026025335971],[103.25559269172062,36.03955903211537],[103.38839962332486,36.13911279438172],[103.56022038771839,36.15784214659497],[103.77106396805408,36.09568151177987],[103.91596222338256,36.068086367216026],[103.99507685045496,36.075056852203616],[104.03063216940042,36.104464042538964],[104.02267309598312,36.15629725310818],[104.07223315020799,36.22877288388957],[104.17920453424095,36.32184068196318],[104.35211226012827,36.42780155043879],[104.59095632786997,36.546609362014884],[104.71348653262388,36.6275829140825],[104.7197927059184,36.67073262301293],[104.69038186351632,36.72750316299133],[104.62517315704208,36.797936200196425],[104.52843358409525,36.850076955484035],[104.40006432999458,36.88389801654082],[104.3265821397536,36.94552218288806],[104.30787921553822,37.034924996149066],[104.31387097848331,37.09344620863856],[104.3527320976743,37.17387850036128],[104.44605807254149,37.19698042750334],[104.52026789816261,37.24131803129819],[104.57555920390017,37.306896703870244],[104.69162153860842,37.358595906177214],[104.95692997462027,37.415389676274614],[104.99785721896475,37.46148822250606],[105.15196320595545,37.48277682945829],[105.43276758061837,37.494716042267065],[105.64898308635311,37.52200155862039],[105.80039412749144,37.564737593628145],[105.90529938637093,37.66080406987968],[105.96359106515744,37.81024949101219],[106.03686664288307,37.91569372601888],[106.12502730486655,37.97709068278927],[106.19638947103701,38.06413568371781],[106.25085432671318,38.17689238114839],[106.33782921252163,38.28169743644294],[106.45720633062828,38.37848577218262],[106.53099394806586,38.497779542323634],[106.55911121645879,38.639529409772315],[106.63993264257103,38.77969695401389],[106.77356602423664,38.918296532934555],[106.85066842507263,39.016846663907494],[106.87133865976023,39.07529024940226],[106.8487011146004,39.18311311808663],[106.78286358742729,39.34026168286591],[106.75868093997879,39.48278346964096],[106.77625198693616,39.61065508942141],[106.76819409883761,39.76005399960271],[106.7177536956343,40.016319030518474],[107.04315942415376,40.286120087053476],[107.14915164452702,40.3955218101728],[107.14419294415868,40.43445903351616],[107.17395412952156,40.49988267479764],[107.2385519816026,40.59183800184499],[107.37973121165483,40.67121335322293],[107.59769843219358,40.738032709981276],[107.71955490048438,40.79345573008971],[107.74549824588976,40.837483572498854],[107.862126519227,40.86453436288109],[108.06955650148304,40.87466282590439],[108.19017329468177,40.863270743714054],[108.22396791567034,40.830353806697474],[108.29006595427586,40.81466426336279],[108.38855724202672,40.81621434879756],[108.47599026863007,40.77813159591982],[108.5525806297541,40.70040910038953],[108.65060479355724,40.63199082957603],[108.77018852417922,40.5728715903523],[108.88413083481694,40.54672597238153],[108.99244969177607,40.55354488203744],[109.13414096154024,40.53475878008297],[109.3091237957339,40.49037345084424],[109.44957539040597,40.488822609074695],[109.55541489718094,40.53010922578675],[109.63458342317038,40.53189125168623],[109.68718876620844,40.494117185486175],[109.83570723213191,40.49132989926626],[110.08023763562208,40.523520097828005],[110.30337915219738,40.484040051972684],[110.50522161338618,40.37293433039403],[110.67451811183136,40.30185861562127],[110.81145729374254,40.27082341261739],[110.91853647560959,40.265710042823],[110.9959982025592,40.28648327247308],[111.12533763716674,40.23462395581897],[111.30672545933615,40.110136865775054],[111.40687863036263,40.01254188867098],[111.42578816709336,39.94179714215426],[111.41638280606861,39.86743532116084],[111.37845593477309,39.78945873577048],[111.38548076029491,39.717889222774936],[111.43725965327155,39.65271938709087],[111.43301960513051,39.57621667704786],[111.37256298650927,39.48828832231099],[111.28424961092747,39.42952892766319],[111.21225862405814,39.41379724571989],[111.1681333773022,39.39992238453861],[111.15582645790975,39.370053265847886],[111.15500000784836,39.347445054550626],[111.19226212583364,39.29656894793349],[111.1993408502725,39.23956827529364],[111.14487599459633,39.12474494418925],[111.08141900292614,39.04404774846519],[111.00886207742779,38.997489699840386],[110.98028666823996,38.95628006181408],[110.99568379220977,38.92041425177938],[110.97041418326748,38.83220640494104],[110.90447784141311,38.69156702575052],[110.87786075954465,38.59979013002436],[110.89057192081493,38.55684670007636],[110.79760527206142,38.44302626825486],[110.59896081328407,38.258388342214026],[110.50346989858215,38.11325271538494],[110.51101574696877,38.007681443143206],[110.58475844864213,37.88073966957656],[110.72459020576818,37.73247406554671],[110.78241476060695,37.6137754665875],[110.75812431532435,37.52473739857621],[110.7187511564214,37.46468974328235],[110.66407968822988,37.433631347913256],[110.64382267857299,37.38415378696745],[110.65777351493536,37.316170607389694],[110.60986636083328,37.21700639625394],[110.50000240158545,37.086674567090746],[110.42708614997348,37.02058170559616],[110.39101879131607,37.01872405138986],[110.38429939299085,37.005130952550374],[110.40673032563532,36.97986069859958],[110.40765559037796,36.91916922198684],[110.38709315352448,36.823130136265014],[110.39282440503715,36.76292567312322],[110.4249751090558,36.73861179781523],[110.4282270103843,36.717033801664954],[110.40259807532838,36.69822280909046],[110.41696213672145,36.64773734883732],[110.47142699239761,36.565572837819616],[110.48569223910943,36.428813449355275],[110.45985669153815,36.237475305094826],[110.49013889976582,36.00565849379384],[110.57643106595835,35.733324460587944],[110.5794314390073,35.53369665745214],[110.45871583112732,35.34316324387146],[110.36610850848744,35.2342314697486],[110.31629692598301,35.13460129253652],[110.27836107153465,35.00798995461687],[110.2620386828222,34.86784294638252],[110.2698899584054,34.63726857125618],[110.46522861693718,34.5970072005668],[110.61859798539491,34.60419446629602],[110.7952876186284,34.64540570733509],[110.89032039253539,34.68258543154961],[110.96994705931974,34.72449603983695],[111.02694516409713,34.746199969808806],[111.10126278755233,34.79482854072161],[111.24316066983185,34.830200904598435],[111.45265677724136,34.8522677465311],[111.58867069440991,34.89941918650696],[111.6514090338528,34.97171507669364],[111.73641660918904,35.0299060511528],[111.84380121825268,35.07408821384703],[112.11794009350744,35.02158613019681],[112.55874340342488,34.87249355815889],[112.85681339784858,34.80901323663687],[113.01215007677854,34.83118161488446],[113.15570984233368,34.874800340882096],[113.28769032387652,34.93985735869174],[113.39869514353516,34.97417365078242],[113.48896684643633,34.97773624395707],[113.61748881413531,34.95372990929075],[113.78440477707757,34.902211460105704],[113.9003143981875,34.89458589755507],[113.96532547529924,34.93094646792835],[114.15627137209168,34.93605746085495],[114.473143105412,34.90993944793908],[114.68139953772943,34.92761015812574],[114.79818950781781,34.97773624395707],[114.83085225154841,35.01977638010276]],[[114.83767046455488,35.01977638010276],[114.86237413486815,35.0611699045946],[114.86558112043245,35.14459918781549],[114.9054753022002,35.2285447525067],[115.0138929738406,35.32952547407111],[115.13605486932799,35.40626564314652],[115.27206878649653,35.45881936789023],[115.34038566385382,35.50263668506239],[115.34100550139988,35.537782985879666],[115.38197766150856,35.597204919576235],[115.46326621156855,35.68092136032962],[115.5963875535222,35.75843421839961],[115.78108117593719,35.82977584933002],[115.87089473804346,35.8803413999133],[115.86572044200692,35.91005408161714],[115.8832914889643,35.93863554857692],[115.92359889576274,35.966021576229885],[115.96617904023002,35.9761998348062],[116.03573559267939,36.07102711590216],[116.0778036974347,36.109733089768774],[116.11593718124558,36.142964935840574],[116.22714861341957,36.201355014374556],[116.45064945610852,36.33850743573686],[116.58082432393026,36.43969052968323],[116.59260123730508,36.4895032425308],[116.64407470308512,36.561489012133144],[116.73512794028348,36.65569387108113],[116.86194310894263,36.72612797067424],[117.02441241122848,36.772899474290334],[117.1504999445075,36.86203749465783],[117.24010689409842,36.99360898776961],[117.35178545022018,37.08187314250528],[117.48541883188578,37.12675100744522],[117.57093844693397,37.175460363209076],[117.60835327851755,37.22801519501192],[117.69290271305887,37.256127190709144],[117.82467658208635,37.25984511254363],[117.96968263524893,37.29007501125284],[118.12791188939376,37.34687063605105],[118.23751533720917,37.43053549935811],[118.29839416401396,37.54106485671781],[118.3851534541542,37.603905001503264],[118.49781117393566,37.61894146027363],[118.6448833522517,37.677521178615535],[118.82627117442111,37.77958366203982],[118.9460525344056,37.82361211753495],[119.03565948399651,37.80916362700244]],[[96.16418404104702,35.12964229235338],[96.74772066645824,35.05320614910694],[97.0720394334839,34.93060768769152],[97.19368928925937,34.91311441611459],[97.24779481882189,34.88931758340461],[97.28825493921862,34.83544351337717],[97.5470505894206,34.875986871641864]]]}}]}