{"type":"FeatureCollection","features":[{"id":"0","type":"Feature","properties":{"province":"\u9752\u6d77","ID":56033,"name":"\u739b\u591a","lat":34.92,"lon":98.22,"ele_prs":4272.9,"ele_sta":4271.7,"station":"Maduo"},"geometry":{"type":"Point","coordinates":[98.22,34.92]}},{"id":"1","type":"Feature","properties":{"province":"\u9752\u6d77","ID":52868,"name":"\u8d35\u5fb7","lat":36.02,"lon":101.37,"ele_prs":2268.4,"ele_sta":2267.2,"station":"Gui'de"},"geometry":{"type":"Point","coordinates":[101.37,36.02]}},{"id":"2","type":"Feature","properties":{"province":"\u5b81\u590f","ID":53614,"name":"\u94f6\u5ddd","lat":38.47,"lon":106.21,"ele_prs":1112.8,"ele_sta":1111.6,"station":"Yinchuan"},"geometry":{"type":"Point","coordinates":[106.21,38.47]}},{"id":"3","type":"Feature","properties":{"province":"\u9655\u897f","ID":53754,"name":"\u7ee5\u5fb7","lat":37.49,"lon":110.26,"ele_prs":930.7,"ele_sta":929.5,"station":"Suide"},"geometry":{"type":"Point","coordinates":[110.26,37.49]}},{"id":"4","type":"Feature","properties":{"province":"\u5c71\u4e1c","ID":54808,"name":"\u8398\u53bf","lat":36.22,"lon":115.63,"ele_prs":39.9,"ele_sta":38.7,"station":"Shenxian"},"geometry":{"type":"Point","coordinates":[115.63,36.22]}}]}