{"type":"FeatureCollection","features":[{"id":"0","type":"Feature","properties":{"Id":0,"line":"West"},"geometry":{"type":"LineString","coordinates":[[97.49758366858146,32.651177663255],[97.69388920156246,32.54053272648389],[97.73315030815866,32.52982515195765],[98.15074571468188,32.30496608690669],[98.22569873636553,32.30496608690669],[98.27566741748797,32.30139689539794],[98.90741431453591,32.16933680957436]]}},{"id":"1","type":"Feature","properties":{"Id":0,"line":"West"},"geometry":{"type":"LineString","coordinates":[[99.71643105651822,31.650614310303354],[100.62062623873373,31.731515984501584],[100.94899185753815,32.09795297939945],[100.96326862357313,32.516738116425586],[102.10858252104612,33.206781808116375]]}},{"id":"2","type":"Feature","properties":{"Id":0,"line":"Middle"},"geometry":{"type":"LineString","coordinates":[[111.41774781415614,30.5241774701434],[111.91029624236302,30.463501214494727],[112.14229369043153,30.552731002213363],[112.7133643318308,30.545592619195872]]}},{"id":"3","type":"Feature","properties":{"Id":0,"line":"Middle"},"geometry":{"type":"LineString","coordinates":[[111.65884670057193,32.63680175301147],[111.85872142506167,32.96992629382771],[112.23943518599458,33.25546161452735],[112.45834559853097,33.312568678667276],[112.92471995567371,33.388711430853846],[113.17218390028006,33.540996935226985],[113.0579697720002,33.71231812764677],[113.11507683614013,33.94074638420648],[113.41964784488641,34.24531739295276],[113.46723706500302,34.702173906072176],[113.21977312039667,35.082887667005025],[113.26736234051327,35.311315923564734],[113.58145119328287,35.44456573989123],[113.92409357812244,35.53022633610112],[114.25721811893868,35.777690280707475],[114.27625380698532,36.06322560140711],[114.3999857792885,36.329725234060106],[114.41902146733514,36.9103137194827],[114.34287871514857,37.97631225009468],[114.41902146733514,38.185704818607746],[115.4755021539238,39.15652490898651],[115.66585903439022,39.556274357966004],[115.71344825450683,39.641934954175895],[115.77055531864676,39.74663123843243],[115.90380513497325,39.85132752268896],[116.06560848336972,39.93698811889885]]}},{"id":"4","type":"Feature","properties":{"Id":0,"line":"Middle"},"geometry":{"type":"LineString","coordinates":[[112.65623743884919,34.955784791610256],[113.21977312039667,35.082887667005025]]}},{"id":"5","type":"Feature","properties":{"Id":0,"line":"Middle"},"geometry":{"type":"LineString","coordinates":[[115.4755021539238,39.15652490898651],[115.60319989457014,39.13887723985994],[115.78641839201907,39.13887723985994],[115.969636889468,39.13887723985994],[116.14333754289362,39.15315400589492],[116.32893550134838,39.16981023293573],[116.4954977717565,39.18170753796488],[116.68109573021127,39.193604842994034],[116.8643142276602,39.203122687017355],[117.0522916471208,39.207881609029016]]}},{"id":"6","type":"Feature","properties":{"Id":0,"line":"East"},"geometry":{"type":"LineString","coordinates":[[119.34276081133316,32.18022284367589],[119.29517159121656,32.579972292655384],[119.17143961891338,32.86550761335502],[119.14288608684342,33.00827527370484],[119.03818980258688,33.16056077807798],[118.90493998626039,33.37947119061437],[118.77169016993389,33.40802472268433],[118.6384403536074,33.446096098777616],[118.57181544544414,33.588863759127435],[118.24820874865122,33.674524355337326],[118.01026264806819,33.80777417166382],[117.8770128317417,33.99813105213025],[117.59147751104206,34.18848793259667],[117.43919200666892,34.40739834513306],[117.19172806206257,34.49305894134295]]}},{"id":"7","type":"Feature","properties":{"Id":0,"line":"East"},"geometry":{"type":"LineString","coordinates":[[116.54451466847672,35.206897243092044],[116.43981838422019,35.520986095861645],[116.24946150375376,35.80652141656145],[116.18283659559052,36.02543182909784],[116.05910462328734,36.33000283784412],[115.94489049500748,36.758305818893575],[115.9068191189142,36.843966415103466],[115.65935517430785,37.01528760752325],[115.50706966993471,37.28178724017624],[115.8592298987976,37.462626276619346],[115.9068191189142,37.519733340759274],[116.05910462328734,37.757679441342304],[116.28753287984705,37.86237572559884],[116.41126485215023,37.909964945715444],[116.49692544836012,37.96707200985537],[116.54451466847672,38.233571642508366],[116.83956783319968,38.452482055044754],[116.88715705331629,38.71898168769775],[116.83956783319968,38.79512443988432],[116.87763920929297,38.89030288011753],[117.49629907080885,38.918856412187495]]}},{"id":"8","type":"Feature","properties":{"Id":0,"line":"East"},"geometry":{"type":"LineString","coordinates":[[116.18283659559052,36.02543182909784],[116.87763920929297,36.58698462647379],[117.115585309876,36.672645222683684],[117.2964243463191,36.843966415103466],[117.46774553873888,37.00576976349993],[117.60099535506538,37.09143035970982],[117.69617379529859,37.15805526787307],[117.81990576760177,37.215162332012994],[117.94363773990494,37.25323370810628],[118.0578518681848,37.27226939615292],[118.12447677634805,37.28178724017624]]}},{"id":"9","type":"Feature","properties":{"Id":0,"line":"East"},"geometry":{"type":"LineString","coordinates":[[119.72347457226601,36.61553815854376],[119.82817085652255,36.996251919476606],[120.23743814952536,37.300822928222885],[120.77043741483135,37.55780471685256],[121.35102590025394,37.47214412064267],[122.1410069541896,37.23419802005964]]}},{"id":"10","type":"Feature","properties":{"Id":0,"line":"East"},"geometry":{"type":"LineString","coordinates":[[118.60036897751411,33.25573921831119],[118.77169016993389,33.40802472268433]]}},{"id":"11","type":"Feature","properties":{"Id":0,"line":"East"},"geometry":{"type":"LineString","coordinates":[[118.62892250958407,33.122489401984694],[119.03818980258688,33.16056077807798]]}},{"id":"12","type":"Feature","properties":{"Id":0,"line":"East"},"geometry":{"type":"LineString","coordinates":[[118.5051905372809,32.92261467749495],[119.17143961891338,32.86550761335502]]}}]}